STARLINK-30887          
1 58394U 23178W   26068.22234539  .00000558  00000+0  30951-4 0  9991
2 58394  53.1618   3.5105 0000924  88.3390 271.7716 15.30188910129790
2025-313BE              
1 67482U 25313BE  26068.69721505  .00077178  00000+0  26504-2 0  9996
2 67482  97.3989 145.3568 0007208 335.3714  24.7181 15.29801687  7972
